NUSAT-26 (M SOMERVILLE) 
1 52184U 22033AD  26194.83587331  .00011631  00000+0  26369-3 0  9990
2 52184  97.2347 273.7252 0006921 141.3789 218.7955 15.43212630108815
NUSAT-33 (ALBANIA-2)    
1 55047U 23001AQ  26194.86279912  .00005552  00000+0  20434-3 0  9995
2 55047  97.3061 255.2583 0004918 321.0797  39.0089 15.28251146196381
NUSAT-35 (WILLIAMINA)   
1 55048U 23001AR  26194.88367096  .00008329  00000+0  24094-3 0  9990
2 55048  97.1840 246.9651 0010610  14.8862 345.2692 15.35803085196503
NUSAT-39 (TIKVAH ALPER) 
1 56201U 23054Z   26194.81860825  .00016736  00000+0  32208-3 0  9998
2 56201  97.3101 104.8386 0002053 331.5112  28.6026 15.47969601182578
NUSAT-38 (MARIA AGNESI) 
1 56202U 23054AA  26194.81624422  .00019608  00000+0  33681-3 0  9997
2 56202  97.3039 105.5664 0008990 333.3553  26.7236 15.51141704182631
NUSAT-37 (JOAN CLARKE)  
1 56203U 23054AB  26194.81761803  .00029114  00000+0  36719-3 0  9991
2 56203  97.2611 102.4378 0007658 147.8758 212.2967 15.59522823182793
NUSAT-40 (C SHOEMAKER)  
1 56943U 23084M   26194.89562832  .00111427  00000+0  54038-3 0  9997
2 56943  97.4862 343.6443 0004111 190.0957 170.0230 15.82159999173024
NUSAT-41 (C PAYNE-G)    
1 56944U 23084N   26194.87452019  .00006592  00000+0  22864-3 0  9999
2 56944  97.5546 332.0203 0006366 216.0682 144.0130 15.30136548171867
NUSAT-42 (M WONENBURGER)
1 56966U 23084AL  26194.89818116  .00013797  00000+0  27987-3 0  9995
2 56966  97.5741 340.1567 0006726 149.9973 210.1663 15.46472953172203
NUSAT-44 (MARIA MITCHE*)
1 59122U 24043AA  26194.89547214  .00006226  00000+0  21811-3 0  9995
2 59122  97.5478 335.5669 0006405 135.2276 224.9482 15.29833600131350
NUSAT-50 (NANCY ROMAN)  
1 60493U 24149AB  26194.78542214  .00005510  00000+0  19055-3 0  9990
2 60493  97.3787 275.8626 0004852 105.0065 255.1713 15.30303573106198
NUSAT-48 (HENRIETTA LE*)
1 60498U 24149AG  26194.77439727  .00005371  00000+0  18607-3 0  9995
2 60498  97.3923 276.1407 0004664 162.5279 197.6123 15.30259674106201
NUSAT-49 (KLARA DAN VO*)
1 60500U 24149AJ  26194.75079295  .00005126  00000+0  17714-3 0  9993
2 60500  97.3781 275.8602 0002377 167.6185 192.5115 15.30367200106199
NUSAT-45 (UZMASAT-1)    
1 62640U 25009AH  26194.80520612  .00005016  00000+0  17339-3 0  9997
2 62640  97.3596 275.7663 0001699 182.4871 177.6361 15.30366252 82993
NUSAT-52                
1 66692U 25276AC  26194.74571932  .00003003  00000+0  14249-3 0  9999
2 66692  97.4202 267.8552 0001610 289.5332  70.5729 15.20028634 34457
NUSAT-51 (YVONNE BRILL) 
1 66740U 25276CC  26194.74739634  .00003684  00000+0  17147-3 0  9993
2 66740  97.4208 267.9985 0001674 245.6887 114.4174 15.20556102 34465
