{"fetched_at":"2026-07-14T06:34:55.932Z","source":"https://celestrak.org/NORAD/elements/gp.php?NAME=NUSAT&FORMAT=JSON","constellation":"satellogic","records":[{"OBJECT_NAME":"NUSAT-26 (M SOMERVILLE)","OBJECT_ID":"2022-033AD","EPOCH":"2026-07-13T20:03:39.453984","CLASSIFICATION_TYPE":"U","MEAN_MOTION":15.4321263,"ECCENTRICITY":0.0006921,"INCLINATION":97.2347,"RA_OF_ASC_NODE":273.7252,"ARG_OF_PERICENTER":141.3789,"MEAN_ANOMALY":218.7955,"EPHEMERIS_TYPE":0,"NORAD_CAT_ID":52184,"ELEMENT_SET_NO":999,"REV_AT_EPOCH":10881,"BSTAR":0.00026369,"MEAN_MOTION_DOT":0.00011631,"MEAN_MOTION_DDOT":0},{"OBJECT_NAME":"NUSAT-33 (ALBANIA-2)","OBJECT_ID":"2023-001AQ","EPOCH":"2026-07-13T20:42:25.843968","CLASSIFICATION_TYPE":"U","MEAN_MOTION":15.28251146,"ECCENTRICITY":0.0004918,"INCLINATION":97.3061,"RA_OF_ASC_NODE":255.2583,"ARG_OF_PERICENTER":321.0797,"MEAN_ANOMALY":39.0089,"EPHEMERIS_TYPE":0,"NORAD_CAT_ID":55047,"ELEMENT_SET_NO":999,"REV_AT_EPOCH":19638,"BSTAR":0.00020434,"MEAN_MOTION_DOT":0.00005552,"MEAN_MOTION_DDOT":0},{"OBJECT_NAME":"NUSAT-35 (WILLIAMINA)","OBJECT_ID":"2023-001AR","EPOCH":"2026-07-13T21:12:29.170944","CLASSIFICATION_TYPE":"U","MEAN_MOTION":15.35803085,"ECCENTRICITY":0.001061,"INCLINATION":97.184,"RA_OF_ASC_NODE":246.9651,"ARG_OF_PERICENTER":14.8862,"MEAN_ANOMALY":345.2692,"EPHEMERIS_TYPE":0,"NORAD_CAT_ID":55048,"ELEMENT_SET_NO":999,"REV_AT_EPOCH":19650,"BSTAR":0.00024094,"MEAN_MOTION_DOT":0.00008329,"MEAN_MOTION_DDOT":0},{"OBJECT_NAME":"NUSAT-39 (TIKVAH ALPER)","OBJECT_ID":"2023-054Z","EPOCH":"2026-07-13T19:38:47.752800","CLASSIFICATION_TYPE":"U","MEAN_MOTION":15.47969601,"ECCENTRICITY":0.0002053,"INCLINATION":97.3101,"RA_OF_ASC_NODE":104.8386,"ARG_OF_PERICENTER":331.5112,"MEAN_ANOMALY":28.6026,"EPHEMERIS_TYPE":0,"NORAD_CAT_ID":56201,"ELEMENT_SET_NO":999,"REV_AT_EPOCH":18257,"BSTAR":0.00032208,"MEAN_MOTION_DOT":0.00016736,"MEAN_MOTION_DDOT":0},{"OBJECT_NAME":"NUSAT-38 (MARIA AGNESI)","OBJECT_ID":"2023-054AA","EPOCH":"2026-07-13T19:35:23.500608","CLASSIFICATION_TYPE":"U","MEAN_MOTION":15.51141704,"ECCENTRICITY":0.000899,"INCLINATION":97.3039,"RA_OF_ASC_NODE":105.5664,"ARG_OF_PERICENTER":333.3553,"MEAN_ANOMALY":26.7236,"EPHEMERIS_TYPE":0,"NORAD_CAT_ID":56202,"ELEMENT_SET_NO":999,"REV_AT_EPOCH":18263,"BSTAR":0.00033681,"MEAN_MOTION_DOT":0.00019608,"MEAN_MOTION_DDOT":0},{"OBJECT_NAME":"NUSAT-37 (JOAN CLARKE)","OBJECT_ID":"2023-054AB","EPOCH":"2026-07-13T19:37:22.197792","CLASSIFICATION_TYPE":"U","MEAN_MOTION":15.59522823,"ECCENTRICITY":0.0007658,"INCLINATION":97.2611,"RA_OF_ASC_NODE":102.4378,"ARG_OF_PERICENTER":147.8758,"MEAN_ANOMALY":212.2967,"EPHEMERIS_TYPE":0,"NORAD_CAT_ID":56203,"ELEMENT_SET_NO":999,"REV_AT_EPOCH":18279,"BSTAR":0.00036719,"MEAN_MOTION_DOT":0.00029114,"MEAN_MOTION_DDOT":0},{"OBJECT_NAME":"NUSAT-40 (C SHOEMAKER)","OBJECT_ID":"2023-084M","EPOCH":"2026-07-13T21:29:42.286848","CLASSIFICATION_TYPE":"U","MEAN_MOTION":15.82159999,"ECCENTRICITY":0.0004111,"INCLINATION":97.4862,"RA_OF_ASC_NODE":343.6443,"ARG_OF_PERICENTER":190.0957,"MEAN_ANOMALY":170.023,"EPHEMERIS_TYPE":0,"NORAD_CAT_ID":56943,"ELEMENT_SET_NO":999,"REV_AT_EPOCH":17302,"BSTAR":0.00054038,"MEAN_MOTION_DOT":0.00111427,"MEAN_MOTION_DDOT":0},{"OBJECT_NAME":"NUSAT-41 (C PAYNE-G)","OBJECT_ID":"2023-084N","EPOCH":"2026-07-13T20:59:18.544416","CLASSIFICATION_TYPE":"U","MEAN_MOTION":15.30136548,"ECCENTRICITY":0.0006366,"INCLINATION":97.5546,"RA_OF_ASC_NODE":332.0203,"ARG_OF_PERICENTER":216.0682,"MEAN_ANOMALY":144.013,"EPHEMERIS_TYPE":0,"NORAD_CAT_ID":56944,"ELEMENT_SET_NO":999,"REV_AT_EPOCH":17186,"BSTAR":0.00022864,"MEAN_MOTION_DOT":0.00006592,"MEAN_MOTION_DDOT":0},{"OBJECT_NAME":"NUSAT-42 (M WONENBURGER)","OBJECT_ID":"2023-084AL","EPOCH":"2026-07-13T21:33:22.852224","CLASSIFICATION_TYPE":"U","MEAN_MOTION":15.46472953,"ECCENTRICITY":0.0006726,"INCLINATION":97.5741,"RA_OF_ASC_NODE":340.1567,"ARG_OF_PERICENTER":149.9973,"MEAN_ANOMALY":210.1663,"EPHEMERIS_TYPE":0,"NORAD_CAT_ID":56966,"ELEMENT_SET_NO":999,"REV_AT_EPOCH":17220,"BSTAR":0.00027987,"MEAN_MOTION_DOT":0.00013797,"MEAN_MOTION_DDOT":0},{"OBJECT_NAME":"NUSAT-44 (MARIA MITCHELL)","OBJECT_ID":"2024-043AA","EPOCH":"2026-07-13T21:29:28.792896","CLASSIFICATION_TYPE":"U","MEAN_MOTION":15.298336,"ECCENTRICITY":0.0006405,"INCLINATION":97.5478,"RA_OF_ASC_NODE":335.5669,"ARG_OF_PERICENTER":135.2276,"MEAN_ANOMALY":224.9482,"EPHEMERIS_TYPE":0,"NORAD_CAT_ID":59122,"ELEMENT_SET_NO":999,"REV_AT_EPOCH":13135,"BSTAR":0.00021811,"MEAN_MOTION_DOT":0.00006226,"MEAN_MOTION_DDOT":0},{"OBJECT_NAME":"NUSAT-50 (NANCY ROMAN)","OBJECT_ID":"2024-149AB","EPOCH":"2026-07-13T18:51:00.472896","CLASSIFICATION_TYPE":"U","MEAN_MOTION":15.30303573,"ECCENTRICITY":0.0004852,"INCLINATION":97.3787,"RA_OF_ASC_NODE":275.8626,"ARG_OF_PERICENTER":105.0065,"MEAN_ANOMALY":255.1713,"EPHEMERIS_TYPE":0,"NORAD_CAT_ID":60493,"ELEMENT_SET_NO":999,"REV_AT_EPOCH":10619,"BSTAR":0.00019055,"MEAN_MOTION_DOT":0.0000551,"MEAN_MOTION_DDOT":0},{"OBJECT_NAME":"NUSAT-48 (HENRIETTA LEAVITT)","OBJECT_ID":"2024-149AG","EPOCH":"2026-07-13T18:35:07.924128","CLASSIFICATION_TYPE":"U","MEAN_MOTION":15.30259674,"ECCENTRICITY":0.0004664,"INCLINATION":97.3923,"RA_OF_ASC_NODE":276.1407,"ARG_OF_PERICENTER":162.5279,"MEAN_ANOMALY":197.6123,"EPHEMERIS_TYPE":0,"NORAD_CAT_ID":60498,"ELEMENT_SET_NO":999,"REV_AT_EPOCH":10620,"BSTAR":0.00018607,"MEAN_MOTION_DOT":0.00005371,"MEAN_MOTION_DDOT":0},{"OBJECT_NAME":"NUSAT-49 (KLARA DAN VON NEUMANN)","OBJECT_ID":"2024-149AJ","EPOCH":"2026-07-13T18:01:08.510880","CLASSIFICATION_TYPE":"U","MEAN_MOTION":15.303672,"ECCENTRICITY":0.0002377,"INCLINATION":97.3781,"RA_OF_ASC_NODE":275.8602,"ARG_OF_PERICENTER":167.6185,"MEAN_ANOMALY":192.5115,"EPHEMERIS_TYPE":0,"NORAD_CAT_ID":60500,"ELEMENT_SET_NO":999,"REV_AT_EPOCH":10619,"BSTAR":0.00017714,"MEAN_MOTION_DOT":0.00005126,"MEAN_MOTION_DDOT":0},{"OBJECT_NAME":"NUSAT-45 (UZMASAT-1)","OBJECT_ID":"2025-009AH","EPOCH":"2026-07-13T19:19:29.808768","CLASSIFICATION_TYPE":"U","MEAN_MOTION":15.30366252,"ECCENTRICITY":0.0001699,"INCLINATION":97.3596,"RA_OF_ASC_NODE":275.7663,"ARG_OF_PERICENTER":182.4871,"MEAN_ANOMALY":177.6361,"EPHEMERIS_TYPE":0,"NORAD_CAT_ID":62640,"ELEMENT_SET_NO":999,"REV_AT_EPOCH":8299,"BSTAR":0.00017339,"MEAN_MOTION_DOT":0.00005016,"MEAN_MOTION_DDOT":0},{"OBJECT_NAME":"NUSAT-52","OBJECT_ID":"2025-276AC","EPOCH":"2026-07-13T17:53:50.149248","CLASSIFICATION_TYPE":"U","MEAN_MOTION":15.20028634,"ECCENTRICITY":0.000161,"INCLINATION":97.4202,"RA_OF_ASC_NODE":267.8552,"ARG_OF_PERICENTER":289.5332,"MEAN_ANOMALY":70.5729,"EPHEMERIS_TYPE":0,"NORAD_CAT_ID":66692,"ELEMENT_SET_NO":999,"REV_AT_EPOCH":3445,"BSTAR":0.00014249,"MEAN_MOTION_DOT":0.00003003,"MEAN_MOTION_DDOT":0},{"OBJECT_NAME":"NUSAT-51 (YVONNE BRILL)","OBJECT_ID":"2025-276CC","EPOCH":"2026-07-13T17:56:15.043776","CLASSIFICATION_TYPE":"U","MEAN_MOTION":15.20556102,"ECCENTRICITY":0.0001674,"INCLINATION":97.4208,"RA_OF_ASC_NODE":267.9985,"ARG_OF_PERICENTER":245.6887,"MEAN_ANOMALY":114.4174,"EPHEMERIS_TYPE":0,"NORAD_CAT_ID":66740,"ELEMENT_SET_NO":999,"REV_AT_EPOCH":3446,"BSTAR":0.00017147,"MEAN_MOTION_DOT":0.00003684,"MEAN_MOTION_DDOT":0}]}
